ONEWEB-0271             
1 48989U 21060Y   24324.48182863 -.00000242  00000+0 -66604-3 0  9996
2 48989  87.9089 343.2613 0001973  82.5372 277.5983 13.16594800164043
ONEWEB-0272             
1 48990U 21060Z   24324.50399700  .00000060  00000+0  12334-3 0  9998
2 48990  87.9092 343.2877 0001936  86.3151 273.8201 13.16596854165298
ONEWEB-0273             
1 48991U 21060AA  24324.60216105  .00000091  00000+0  20567-3 0  9998
2 48991  87.9093 343.2539 0001699  86.6099 273.5226 13.16596797165284
ONEWEB-0274             
1 48992U 21060AB  24324.62749338 -.00000021  00000+0 -87780-4 0  9996
2 48992  87.9098 343.2729 0002346  90.9824 269.1576 13.16596706165329
ONEWEB-0275             
1 48993U 21060AC  24325.07239399  .00000004  00000+0 -22507-4 0  9994
2 48993  87.9092 343.1554 0001866  87.3948 272.7396 13.16596839165307
ONEWEB-0276             
1 48994U 21060AD  24325.02964227  .00000102  00000+0  23400-3 0  9995
2 48994  87.9090 343.1602 0001743  84.5486 275.5844 13.16596530165329
ONEWEB-0277             
1 48995U 21060AE  24324.43433604 -.00000101  00000+0 -29790-3 0  9999
2 48995  87.9092 343.3163 0001948  78.5466 281.5884 13.16595454163934
ONEWEB-0278             
1 48996U 21060AF  24324.50082929  .00000073  00000+0  15853-3 0  9999
2 48996  87.9090 343.2623 0001565  95.9398 264.1911 13.16596499164079
ONEWEB-0279             
1 48997U 21060AG  24324.50875738  .00000154  00000+0  36973-3 0  9994
2 48997  87.9090 343.2578 0002031  81.7746 278.3615 13.16595562165303
ONEWEB-0280             
1 48998U 21060AH  24324.59981087  .00000026  00000+0  33282-4 0  9998
2 48998  87.9092 343.2433 0001622  81.4024 278.7290 13.16596874165240
ONEWEB-0281             
1 48999U 21060AJ  24324.45333218  .00000006  00000+0 -17830-4 0  9991
2 48999  87.9092 343.2724 0002020  94.4575 265.6787 13.16597030164006
ONEWEB-0282             
1 49000U 21060AK  24324.33142086 -.00000015  00000+0 -72233-4 0  9992
2 49000  87.9091 343.3133 0001745  83.3947 276.7383 13.16596826163968
ONEWEB-0283             
1 49001U 21060AL  24324.47233488 -.00000042  00000+0 -14252-3 0  9991
2 49001  87.9090 343.2900 0002001  86.2871 273.8489 13.16596370163995
ONEWEB-0284             
1 49002U 21060AM  24325.07397905  .00000014  00000+0  18636-5 0  9993
2 49002  87.9084 343.1447 0001643  93.7307 266.4012 13.16597973165365
ONEWEB-0285             
1 49075U 21075A   24324.46079290  .00000844  00000+0  23094-2 0  9997
2 49075  87.8858 105.1114 0001388  99.2491 260.8795 13.12439323159821
ONEWEB-0286             
1 49076U 21075B   24324.81342888 -.00000373  00000+0 -10734-2 0  9999
2 49076  87.8856 105.0390 0001569 106.8989 253.2312 13.12440126159221
ONEWEB-0287             
1 49077U 21075C   24324.48171131 -.00000111  00000+0 -31808-3 0  9990
2 49077  87.9072 120.3503 0001397 100.9350 259.1939 13.17647045157946
ONEWEB-0288             
1 49078U 21075D   24324.41846859 -.00000317  00000+0 -91698-3 0  9991
2 49078  87.8856 105.1208 0001364 100.0304 260.0979 13.12443820159793
ONEWEB-0289             
1 49079U 21075E   24324.51041082  .00000117  00000+0  26906-3 0  9994
2 49079  87.9077 120.3739 0001582  92.6295 267.5018 13.17651329158521
ONEWEB-0290             
1 49080U 21075F   24324.49353378  .00000078  00000+0  16727-3 0  9993
2 49080  87.9074 120.3362 0001202  67.7283 292.3975 13.17650932157932
ONEWEB-0291             
1 49081U 21075G   24324.47834910  .00000249  00000+0  60760-3 0  9994
2 49081  87.9069 120.3528 0000599  65.6762 294.4432 13.17650901157924
ONEWEB-0293             
1 49082U 21075H   24324.50366584  .00000122  00000+0  28052-3 0  9994
2 49082  87.9075 120.3694 0001369  92.1133 268.0155 13.17646913157959
ONEWEB-0294             
1 49083U 21075J   24324.72990787 -.00000326  00000+0 -94142-3 0  9998
2 49083  87.8857 105.0579 0000914  99.8923 260.2309 13.12441894159228
ONEWEB-0295             
1 49084U 21075K   24324.50280114 -.00000265  00000+0 -71630-3 0  9990
2 49084  87.9076 120.3483 0001370 108.3137 251.8143 13.17649859157919
ONEWEB-0296             
1 49085U 21075L   24324.40549894  .00000152  00000+0  38597-3 0  9991
2 49085  87.8860 105.1267 0001118 124.1307 235.9927 13.12441515159184
ONEWEB-0297             
1 49086U 21075M   24324.43629754 -.00003078  00000+0 -85923-2 0  9995
2 49086  87.8866 105.1390 0001844  92.6795 267.4544 13.12458020159795
ONEWEB-0298             
1 49087U 21075N   24324.50716672  .00000081  00000+0  17431-3 0  9999
2 49087  87.9075 120.3652 0001658 101.9690 258.1627 13.17648390157940
ONEWEB-0299             
1 49088U 21075P   24324.50872768  .00000158  00000+0  37293-3 0  9992
2 49088  87.9072 120.3275 0001656 103.3797 256.7519 13.17649425157923
ONEWEB-0300             
1 49089U 21075Q   24324.42820380 -.00000360  00000+0 -10363-2 0  9992
2 49089  87.8856 105.1160 0001906  93.1874 266.9472 13.12442538159819
ONEWEB-0301             
1 49090U 21075R   24324.41198211  .00000089  00000+0  21080-3 0  9999
2 49090  87.8857 105.1236 0001800  91.7699 268.3636 13.12441742159171
ONEWEB-0302             
1 49091U 21075S   24324.47524331  .00000357  00000+0  95709-3 0  9999
2 49091  87.8857 105.1105 0001100 101.6625 258.4627 13.12442522159166
ONEWEB-0304             
1 49092U 21075T   24324.48341950  .00000003  00000+0 -25126-4 0  9991
2 49092  87.9071 120.3544 0001538 101.0380 259.0925 13.17652225157893
ONEWEB-0305             
1 49093U 21075U   24324.47666610  .00000066  00000+0  13603-3 0  9998
2 49093  87.9072 120.3388 0001732 108.4601 251.6719 13.17645421157927
ONEWEB-0308             
1 49094U 21075V   24324.46874214  .00000525  00000+0  14226-2 0  9990
2 49094  87.8857 105.1094 0001586  96.3745 263.7564 13.12445654159176
ONEWEB-0309             
1 49095U 21075W   24324.48004590  .00000104  00000+0  23453-3 0  9991
2 49095  87.9075 120.3476 0001021  89.2064 270.9184 13.17649025157890
ONEWEB-0310             
1 49096U 21075X   24324.40711472  .00000000  00000+0 -34018-4 0  9994
2 49096  87.8865 105.1436 0001354  95.0853 265.0430 13.12439151159796
ONEWEB-0311             
1 49097U 21075Y   24324.48679712  .00000124  00000+0  28585-3 0  9990
2 49097  87.9072 120.3474 0001618 110.5863 249.5442 13.17648375157946
ONEWEB-0312             
1 49098U 21075Z   24324.57790836  .00000215  00000+0  52060-3 0  9998
2 49098  87.9073 120.3609 0001238 110.5191 249.6074 13.17650190157939
ONEWEB-0313             
1 49099U 21075AA  24324.50690731  .00000044  00000+0  79574-4 0  9995
2 49099  87.9076 120.3909 0001414 103.1351 256.9938 13.17650680157910
ONEWEB-0314             
1 49100U 21075AB  24324.47329124  .00000033  00000+0  52393-4 0  9997
2 49100  87.9067 120.3365 0001311 109.6309 250.4964 13.17645587157883
ONEWEB-0315             
1 49101U 21075AC  24324.45739834  .00000391  00000+0  10516-2 0  9995
2 49101  87.8855 105.1038 0001834 107.2024 252.9306 13.12445916159781
ONEWEB-0316             
1 49102U 21075AD  24324.39504289  .00000131  00000+0  29908-3 0  9991
2 49102  87.9097  89.8398 0001673 106.3703 253.7613 13.18688019161459
ONEWEB-0317             
1 49103U 21075AE  24324.45089486  .00000284  00000+0  75392-3 0  9993
2 49103  87.8854 105.1170 0001498  77.6869 282.4427 13.12447723159805
ONEWEB-0318             
1 49104U 21075AF  24324.39185928  .00000094  00000+0  20548-3 0  9997
2 49104  87.9095  89.8299 0001735 109.0307 251.1014 13.18687617161414
ONEWEB-0319             
1 49105U 21075AG  24324.48847608  .00000102  00000+0  22991-3 0  9992
2 49105  87.9072 120.3723 0001673 111.5048 248.6262 13.17648985157925
ONEWEB-0323             
1 49106U 21075AH  24324.44118777 -.00000063  00000+0 -21116-3 0  9993
2 49106  87.8855 105.1055 0001875 124.0799 236.0508 13.12442258159161
ONEWEB-0329             
1 49107U 21075AJ  24324.49692293  .00000108  00000+0  24477-3 0  9990
2 49107  87.9076 120.3751 0001486 102.1712 257.9586 13.17648844157902
ONEWEB-0330             
1 49108U 21075AK  24324.49861053  .00000112  00000+0  25564-3 0  9996
2 49108  87.9077 120.3762 0001307  99.9403 260.1876 13.17649157157948
ONEWEB-0292             
1 49186U 21083A   24324.32815112 -.00000100  00000+0 -30850-3 0  9991
2 49186  87.8925  74.6027 0001746 106.8600 253.2720 13.13472152155465
ONEWEB-0303             
1 49187U 21083B   24324.61633891  .00000095  00000+0  20806-3 0  9997
2 49187  87.9096  89.7864 0001753 105.7526 254.3800 13.18686269154253
ONEWEB-0306             
1 49188U 21083C   24324.37920293 -.00000142  00000+0 -39384-3 0  9992
2 49188  87.9094  89.8195 0001455  95.0989 265.0309 13.18684622154268
ONEWEB-0307             
1 49189U 21083D   24324.55113073 -.00000040  00000+0 -14527-3 0  9992
2 49189  87.8928  74.5602 0001995  98.1996 261.9359 13.13471674155491
ONEWEB-0320             
1 49190U 21083E   24325.14430987  .00000065  00000+0  13256-3 0  9999
2 49190  87.9096  89.6931 0001594 100.6015 259.5297 13.18685645155605
ONEWEB-0321             
1 49191U 21083F   24324.58567873  .00000086  00000+0  18010-3 0  9998
2 49191  87.9285  28.7512 0001776  93.0033 267.1303 13.20769826160989
ONEWEB-0322             
1 49192U 21083G   24324.54718366  .00000268  00000+0  69812-3 0  9998
2 49192  87.8930  74.5502 0001534  87.6723 272.4581 13.13471797156779
ONEWEB-0324             
1 49193U 21083H   24324.37130939  .00000162  00000+0  37890-3 0  9998
2 49193  87.9095  89.8281 0001391 108.8092 251.3191 13.18688184154240
ONEWEB-0325             
1 49194U 21083J   24324.75544117  .00000021  00000+0  20637-4 0  9994
2 49194  87.9100  89.7674 0001637  98.7085 261.4232 13.18686005154300
ONEWEB-0326             
1 49195U 21083K   24324.39029357  .00000106  00000+0  23653-3 0  9993
2 49195  87.9096  89.8352 0001888 112.3752 247.7580 13.18684670154243
ONEWEB-0327             
1 49196U 21083L   24324.38950247  .00000109  00000+0  24459-3 0  9992
2 49196  87.9095  89.8610 0001888 106.8105 253.3234 13.18684376154264
